KUIPER-00408            
1 68924U 26098F   26186.42417118  .00029825  00000+0  11239-2 0  9998
2 68924  51.8796 342.4117 0013961 224.7874 135.1982 15.26749411 10115
KUIPER-00409            
1 68925U 26098G   26186.58336806 -.01173061  00000+0 -54693-1 0  9995
2 68925  51.8824 340.0917 0005766 239.1730 305.2974 15.22178625  5478
KUIPER-00410            
1 68926U 26098H   26184.84877844  .00013610  00000+0  51943-3 0  9992
2 68926  51.8794 349.8525 0012689 215.7350 144.2784 15.26875187  9876
KUIPER-00413            
1 68928U 26098K   26186.43371803  .00022415  00000+0  10285-2 0  9991
2 68928  51.8798 343.1517 0022897 228.4870 131.4145 15.20113788 10103
KUIPER-00414            
1 68929U 26098L   26186.49132921  .00003372  00000+0  47111-3 0  9994
2 68929  51.8980 349.8195 0001322 223.4711 136.6147 14.79938312 10011
KUIPER-00415            
1 68930U 26098M   26186.43692136  .00034332  00000+0  11587-2 0  9996
2 68930  51.8815 341.0527 0009359 209.1749 150.8713 15.30337813 10130
KUIPER-00416            
1 68931U 26098N   26186.44736210  .00052587  00000+0  14065-2 0  9996
2 68931  51.8753 338.9023 0001654 290.4371  69.6438 15.37539713 10166
KUIPER-00420            
1 68932U 26098P   26186.42583694  .00041081  00000+0  11405-2 0  9993
2 68932  51.8774 339.5092 0003054 261.0966  98.9675 15.36490433 10154
KUIPER-00430            
1 68935U 26098S   26186.58336806 -.02263341  00000+0 -12140+0 0  9997
2 68935  51.8857 341.8558 0018704 220.4087 219.7701 15.18324186  5555
KUIPER-00431            
1 68936U 26098T   26186.58336806 -.00979297  00000+0 -75412-1 0  9993
2 68936  51.8899 342.8904 0014858 207.9452  50.5803 15.03777911  2890
KUIPER-00432            
1 68937U 26098U   26186.42432384  .00031708  00000+0  11438-2 0  9998
2 68937  51.8784 341.6749 0011086 216.5284 143.4943 15.28190709 10120
KUIPER-00434            
1 68938U 26098V   26186.58336806 -.01405658  00000+0 -62928-1 0  9999
2 68938  51.8793 340.0010 0004714 191.5478  69.6658 15.24106807  5782
KUIPER-00436            
1 68939U 26098W   26186.58336806 -.01987674  00000+0 -86773-1 0  9997
2 68939  51.8780 340.4797 0009421 229.2407 150.1863 15.24953013  3585
