{"fetched_at":"2026-07-06T08:46:35.713Z","source":"https://celestrak.org/NORAD/elements/gp.php?GROUP=kuiper&FORMAT=JSON","constellation":"kuiper","records":[{"OBJECT_NAME":"KUIPER-00408","OBJECT_ID":"2026-098F","EPOCH":"2026-07-05T10:10:48.389088","CLASSIFICATION_TYPE":"U","MEAN_MOTION":15.26749411,"ECCENTRICITY":0.0013961,"INCLINATION":51.8796,"RA_OF_ASC_NODE":342.4117,"ARG_OF_PERICENTER":224.7874,"MEAN_ANOMALY":135.1982,"EPHEMERIS_TYPE":0,"NORAD_CAT_ID":68924,"ELEMENT_SET_NO":999,"REV_AT_EPOCH":1011,"BSTAR":0.0011239,"MEAN_MOTION_DOT":0.00029825,"MEAN_MOTION_DDOT":0},{"OBJECT_NAME":"KUIPER-00409","OBJECT_ID":"2026-098G","EPOCH":"2026-07-05T14:00:03.000384","CLASSIFICATION_TYPE":"U","MEAN_MOTION":15.22178625,"ECCENTRICITY":0.00057663,"INCLINATION":51.8824,"RA_OF_ASC_NODE":340.0917,"ARG_OF_PERICENTER":239.173,"MEAN_ANOMALY":305.2974,"EPHEMERIS_TYPE":0,"NORAD_CAT_ID":68925,"ELEMENT_SET_NO":999,"REV_AT_EPOCH":547,"BSTAR":-0.054692966,"MEAN_MOTION_DOT":-0.01173061,"MEAN_MOTION_DDOT":0},{"OBJECT_NAME":"KUIPER-00410","OBJECT_ID":"2026-098H","EPOCH":"2026-07-03T20:22:14.457216","CLASSIFICATION_TYPE":"U","MEAN_MOTION":15.26875187,"ECCENTRICITY":0.0012689,"INCLINATION":51.8794,"RA_OF_ASC_NODE":349.8525,"ARG_OF_PERICENTER":215.735,"MEAN_ANOMALY":144.2784,"EPHEMERIS_TYPE":0,"NORAD_CAT_ID":68926,"ELEMENT_SET_NO":999,"REV_AT_EPOCH":987,"BSTAR":0.00051943,"MEAN_MOTION_DOT":0.0001361,"MEAN_MOTION_DDOT":0},{"OBJECT_NAME":"KUIPER-00413","OBJECT_ID":"2026-098K","EPOCH":"2026-07-05T10:24:33.236928","CLASSIFICATION_TYPE":"U","MEAN_MOTION":15.20113788,"ECCENTRICITY":0.0022898,"INCLINATION":51.8798,"RA_OF_ASC_NODE":343.1517,"ARG_OF_PERICENTER":228.487,"MEAN_ANOMALY":131.4145,"EPHEMERIS_TYPE":0,"NORAD_CAT_ID":68928,"ELEMENT_SET_NO":999,"REV_AT_EPOCH":1010,"BSTAR":0.0010285,"MEAN_MOTION_DOT":0.00022415,"MEAN_MOTION_DDOT":0},{"OBJECT_NAME":"KUIPER-00414","OBJECT_ID":"2026-098L","EPOCH":"2026-07-05T11:47:30.842880","CLASSIFICATION_TYPE":"U","MEAN_MOTION":14.79938312,"ECCENTRICITY":0.0001322,"INCLINATION":51.898,"RA_OF_ASC_NODE":349.8195,"ARG_OF_PERICENTER":223.4711,"MEAN_ANOMALY":136.6147,"EPHEMERIS_TYPE":0,"NORAD_CAT_ID":68929,"ELEMENT_SET_NO":999,"REV_AT_EPOCH":1001,"BSTAR":0.00047111,"MEAN_MOTION_DOT":0.00003372,"MEAN_MOTION_DDOT":0},{"OBJECT_NAME":"KUIPER-00415","OBJECT_ID":"2026-098M","EPOCH":"2026-07-05T10:29:10.004640","CLASSIFICATION_TYPE":"U","MEAN_MOTION":15.30337813,"ECCENTRICITY":0.000936,"INCLINATION":51.8815,"RA_OF_ASC_NODE":341.0527,"ARG_OF_PERICENTER":209.1749,"MEAN_ANOMALY":150.8713,"EPHEMERIS_TYPE":0,"NORAD_CAT_ID":68930,"ELEMENT_SET_NO":999,"REV_AT_EPOCH":1013,"BSTAR":0.0011587,"MEAN_MOTION_DOT":0.00034332,"MEAN_MOTION_DDOT":0},{"OBJECT_NAME":"KUIPER-00416","OBJECT_ID":"2026-098N","EPOCH":"2026-07-05T10:44:12.084576","CLASSIFICATION_TYPE":"U","MEAN_MOTION":15.37539713,"ECCENTRICITY":0.0001654,"INCLINATION":51.8753,"RA_OF_ASC_NODE":338.9023,"ARG_OF_PERICENTER":290.4371,"MEAN_ANOMALY":69.6438,"EPHEMERIS_TYPE":0,"NORAD_CAT_ID":68931,"ELEMENT_SET_NO":999,"REV_AT_EPOCH":1016,"BSTAR":0.0014065,"MEAN_MOTION_DOT":0.00052587,"MEAN_MOTION_DDOT":0},{"OBJECT_NAME":"KUIPER-00420","OBJECT_ID":"2026-098P","EPOCH":"2026-07-05T10:13:12.310752","CLASSIFICATION_TYPE":"U","MEAN_MOTION":15.36490433,"ECCENTRICITY":0.0003054,"INCLINATION":51.8774,"RA_OF_ASC_NODE":339.5092,"ARG_OF_PERICENTER":261.0966,"MEAN_ANOMALY":98.9675,"EPHEMERIS_TYPE":0,"NORAD_CAT_ID":68932,"ELEMENT_SET_NO":999,"REV_AT_EPOCH":1015,"BSTAR":0.0011405,"MEAN_MOTION_DOT":0.00041081,"MEAN_MOTION_DDOT":0},{"OBJECT_NAME":"KUIPER-00430","OBJECT_ID":"2026-098S","EPOCH":"2026-07-05T14:00:03.000384","CLASSIFICATION_TYPE":"U","MEAN_MOTION":15.18324186,"ECCENTRICITY":0.00187046,"INCLINATION":51.8857,"RA_OF_ASC_NODE":341.8558,"ARG_OF_PERICENTER":220.4087,"MEAN_ANOMALY":219.7701,"EPHEMERIS_TYPE":0,"NORAD_CAT_ID":68935,"ELEMENT_SET_NO":999,"REV_AT_EPOCH":555,"BSTAR":-0.12139667,"MEAN_MOTION_DOT":-0.02263341,"MEAN_MOTION_DDOT":0},{"OBJECT_NAME":"KUIPER-00431","OBJECT_ID":"2026-098T","EPOCH":"2026-07-05T14:00:03.000384","CLASSIFICATION_TYPE":"U","MEAN_MOTION":15.03777911,"ECCENTRICITY":0.00148583,"INCLINATION":51.8899,"RA_OF_ASC_NODE":342.8904,"ARG_OF_PERICENTER":207.9452,"MEAN_ANOMALY":50.5803,"EPHEMERIS_TYPE":0,"NORAD_CAT_ID":68936,"ELEMENT_SET_NO":999,"REV_AT_EPOCH":289,"BSTAR":-0.075412104,"MEAN_MOTION_DOT":-0.00979297,"MEAN_MOTION_DDOT":0},{"OBJECT_NAME":"KUIPER-00432","OBJECT_ID":"2026-098U","EPOCH":"2026-07-05T10:11:01.578912","CLASSIFICATION_TYPE":"U","MEAN_MOTION":15.28190709,"ECCENTRICITY":0.0011087,"INCLINATION":51.8784,"RA_OF_ASC_NODE":341.6749,"ARG_OF_PERICENTER":216.5284,"MEAN_ANOMALY":143.4943,"EPHEMERIS_TYPE":0,"NORAD_CAT_ID":68937,"ELEMENT_SET_NO":999,"REV_AT_EPOCH":1012,"BSTAR":0.0011438,"MEAN_MOTION_DOT":0.00031708,"MEAN_MOTION_DDOT":0},{"OBJECT_NAME":"KUIPER-00434","OBJECT_ID":"2026-098V","EPOCH":"2026-07-05T14:00:03.000384","CLASSIFICATION_TYPE":"U","MEAN_MOTION":15.24106807,"ECCENTRICITY":0.00047146,"INCLINATION":51.8793,"RA_OF_ASC_NODE":340.001,"ARG_OF_PERICENTER":191.5478,"MEAN_ANOMALY":69.6658,"EPHEMERIS_TYPE":0,"NORAD_CAT_ID":68938,"ELEMENT_SET_NO":999,"REV_AT_EPOCH":578,"BSTAR":-0.062927971,"MEAN_MOTION_DOT":-0.01405658,"MEAN_MOTION_DDOT":0},{"OBJECT_NAME":"KUIPER-00436","OBJECT_ID":"2026-098W","EPOCH":"2026-07-05T14:00:03.000384","CLASSIFICATION_TYPE":"U","MEAN_MOTION":15.24953013,"ECCENTRICITY":0.00094218,"INCLINATION":51.878,"RA_OF_ASC_NODE":340.4797,"ARG_OF_PERICENTER":229.2407,"MEAN_ANOMALY":150.1863,"EPHEMERIS_TYPE":0,"NORAD_CAT_ID":68939,"ELEMENT_SET_NO":999,"REV_AT_EPOCH":358,"BSTAR":-0.086772955,"MEAN_MOTION_DOT":-0.01987674,"MEAN_MOTION_DDOT":0}]}
